[{"OBJECT_NAME":"STARLINK-5468","OBJECT_ID":"2022-175V","EPOCH":"2026-03-09T07:17:35.918880","MEAN_MOTION":15.08838034,"ECCENTRICITY":0.00014676,"INCLINATION":53.2184,"RA_OF_ASC_NODE":45.6522,"ARG_OF_PERICENTER":94.9163,"MEAN_ANOMALY":265.1997,"EPHEMERIS_TYPE":0,"CLASSIFICATION_TYPE":"U","NORAD_CAT_ID":54777,"ELEMENT_SET_NO":999,"REV_AT_EPOCH":17986,"BSTAR":-1.149131e-5,"MEAN_MOTION_DOT":-4.71e-6,"MEAN_MOTION_DDOT":0},{"OBJECT_NAME":"THORAD AGENA D DEB","OBJECT_ID":"1969-082Z","EPOCH":"2026-03-09T07:18:45.871776","MEAN_MOTION":15.11837328,"ECCENTRICITY":0.00204275,"INCLINATION":70.0067,"RA_OF_ASC_NODE":36.7332,"ARG_OF_PERICENTER":221.6463,"MEAN_ANOMALY":138.3149,"EPHEMERIS_TYPE":0,"CLASSIFICATION_TYPE":"U","NORAD_CAT_ID":4157,"ELEMENT_SET_NO":999,"REV_AT_EPOCH":97934,"BSTAR":0.0014373482,"MEAN_MOTION_DOT":0.00024719,"MEAN_MOTION_DDOT":0}]
